CCSDS_OMM_VERS = 2.0
CREATION_DATE  = 
ORIGINATOR     = 

OBJECT_NAME    = STARLINK-35533
OBJECT_ID      = 2025-259H
CENTER_NAME    = EARTH
REF_FRAME      = TEME
TIME_SYSTEM    = UTC
MEAN_ELEMENT_THEORY = SGP/SGP4

EPOCH          = 2025-11-22T00:07:57.245088
MEAN_MOTION    = 15.82807890
ECCENTRICITY   = .0002512
INCLINATION    = 42.9968
RA_OF_ASC_NODE = 170.2258
ARG_OF_PERICENTER = 294.8877
MEAN_ANOMALY   = 65.1733

EPHEMERIS_TYPE = 0
CLASSIFICATION_TYPE = U
NORAD_CAT_ID   = 66429
ELEMENT_SET_NO = 999
REV_AT_EPOCH   = 293
BSTAR          = -.17636E-2
MEAN_MOTION_DOT = -.370135E-2
MEAN_MOTION_DDOT = 0

CCSDS_OMM_VERS = 2.0
CREATION_DATE  = 
ORIGINATOR     = 

OBJECT_NAME    = STARLINK-35470
OBJECT_ID      = 2025-259J
CENTER_NAME    = EARTH
REF_FRAME      = TEME
TIME_SYSTEM    = UTC
MEAN_ELEMENT_THEORY = SGP/SGP4

EPOCH          = 2025-11-22T00:07:21.539424
MEAN_MOTION    = 15.82641954
ECCENTRICITY   = .0002545
INCLINATION    = 42.9975
RA_OF_ASC_NODE = 170.2227
ARG_OF_PERICENTER = 272.2843
MEAN_ANOMALY   = 87.7738

EPHEMERIS_TYPE = 0
CLASSIFICATION_TYPE = U
NORAD_CAT_ID   = 66430
ELEMENT_SET_NO = 999
REV_AT_EPOCH   = 293
BSTAR          = -.31115E-2
MEAN_MOTION_DOT = -.62882E-2
MEAN_MOTION_DDOT = 0

CCSDS_OMM_VERS = 2.0
CREATION_DATE  = 
ORIGINATOR     = 

OBJECT_NAME    = STARLINK-35439
OBJECT_ID      = 2025-259K
CENTER_NAME    = EARTH
REF_FRAME      = TEME
TIME_SYSTEM    = UTC
MEAN_ELEMENT_THEORY = SGP/SGP4

EPOCH          = 2025-11-22T00:06:49.409856
MEAN_MOTION    = 15.82663667
ECCENTRICITY   = .0002115
INCLINATION    = 42.9976
RA_OF_ASC_NODE = 170.2174
ARG_OF_PERICENTER = 256.5015
MEAN_ANOMALY   = 103.5622

EPHEMERIS_TYPE = 0
CLASSIFICATION_TYPE = U
NORAD_CAT_ID   = 66431
ELEMENT_SET_NO = 999
REV_AT_EPOCH   = 293
BSTAR          = -.28971E-2
MEAN_MOTION_DOT = -.588707E-2
MEAN_MOTION_DDOT = 0

CCSDS_OMM_VERS = 2.0
CREATION_DATE  = 
ORIGINATOR     = 

OBJECT_NAME    = STARLINK-35446
OBJECT_ID      = 2025-259L
CENTER_NAME    = EARTH
REF_FRAME      = TEME
TIME_SYSTEM    = UTC
MEAN_ELEMENT_THEORY = SGP/SGP4

EPOCH          = 2025-11-22T00:06:12.709728
MEAN_MOTION    = 15.82775562
ECCENTRICITY   = .0002486
INCLINATION    = 42.9972
RA_OF_ASC_NODE = 170.2137
ARG_OF_PERICENTER = 278.3944
MEAN_ANOMALY   = 81.6646

EPHEMERIS_TYPE = 0
CLASSIFICATION_TYPE = U
NORAD_CAT_ID   = 66432
ELEMENT_SET_NO = 999
REV_AT_EPOCH   = 293
BSTAR          = -.1771E-2
MEAN_MOTION_DOT = -.371071E-2
MEAN_MOTION_DDOT = 0

CCSDS_OMM_VERS = 2.0
CREATION_DATE  = 
ORIGINATOR     = 

OBJECT_NAME    = STARLINK-35457
OBJECT_ID      = 2025-259M
CENTER_NAME    = EARTH
REF_FRAME      = TEME
TIME_SYSTEM    = UTC
MEAN_ELEMENT_THEORY = SGP/SGP4

EPOCH          = 2025-11-22T00:05:37.461120
MEAN_MOTION    = 15.82756513
ECCENTRICITY   = .000255
INCLINATION    = 42.9970
RA_OF_ASC_NODE = 170.2123
ARG_OF_PERICENTER = 275.2969
MEAN_ANOMALY   = 84.7612

EPHEMERIS_TYPE = 0
CLASSIFICATION_TYPE = U
NORAD_CAT_ID   = 66433
ELEMENT_SET_NO = 999
REV_AT_EPOCH   = 293
BSTAR          = -.1809E-2
MEAN_MOTION_DOT = -.378368E-2
MEAN_MOTION_DDOT = 0

CCSDS_OMM_VERS = 2.0
CREATION_DATE  = 
ORIGINATOR     = 

OBJECT_NAME    = STARLINK-35389
OBJECT_ID      = 2025-259N
CENTER_NAME    = EARTH
REF_FRAME      = TEME
TIME_SYSTEM    = UTC
MEAN_ELEMENT_THEORY = SGP/SGP4

EPOCH          = 2025-11-22T00:05:03.892128
MEAN_MOTION    = 15.82602521
ECCENTRICITY   = .0002112
INCLINATION    = 42.9981
RA_OF_ASC_NODE = 170.2088
ARG_OF_PERICENTER = 263.7421
MEAN_ANOMALY   = 96.3210

EPHEMERIS_TYPE = 0
CLASSIFICATION_TYPE = U
NORAD_CAT_ID   = 66434
ELEMENT_SET_NO = 999
REV_AT_EPOCH   = 293
BSTAR          = -.29695E-2
MEAN_MOTION_DOT = -.600825E-2
MEAN_MOTION_DDOT = 0

CCSDS_OMM_VERS = 2.0
CREATION_DATE  = 
ORIGINATOR     = 

OBJECT_NAME    = STARLINK-35502
OBJECT_ID      = 2025-259P
CENTER_NAME    = EARTH
REF_FRAME      = TEME
TIME_SYSTEM    = UTC
MEAN_ELEMENT_THEORY = SGP/SGP4

EPOCH          = 2025-11-22T00:04:33.515616
MEAN_MOTION    = 15.82602990
ECCENTRICITY   = .0001966
INCLINATION    = 42.9977
RA_OF_ASC_NODE = 170.2080
ARG_OF_PERICENTER = 249.9820
MEAN_ANOMALY   = 110.0841

EPHEMERIS_TYPE = 0
CLASSIFICATION_TYPE = U
NORAD_CAT_ID   = 66435
ELEMENT_SET_NO = 999
REV_AT_EPOCH   = 293
BSTAR          = -.29926E-2
MEAN_MOTION_DOT = -.605176E-2
MEAN_MOTION_DDOT = 0

CCSDS_OMM_VERS = 2.0
CREATION_DATE  = 
ORIGINATOR     = 

OBJECT_NAME    = STARLINK-35501
OBJECT_ID      = 2025-259Q
CENTER_NAME    = EARTH
REF_FRAME      = TEME
TIME_SYSTEM    = UTC
MEAN_ELEMENT_THEORY = SGP/SGP4

EPOCH          = 2025-11-22T00:03:29.996064
MEAN_MOTION    = 15.82585319
ECCENTRICITY   = .0001964
INCLINATION    = 42.9976
RA_OF_ASC_NODE = 170.2007
ARG_OF_PERICENTER = 314.0087
MEAN_ANOMALY   = 46.0623

EPHEMERIS_TYPE = 0
CLASSIFICATION_TYPE = U
NORAD_CAT_ID   = 66436
ELEMENT_SET_NO = 999
REV_AT_EPOCH   = 293
BSTAR          = -.29732E-2
MEAN_MOTION_DOT = -.60103E-2
MEAN_MOTION_DDOT = 0

CCSDS_OMM_VERS = 2.0
CREATION_DATE  = 
ORIGINATOR     = 

OBJECT_NAME    = STARLINK-35474
OBJECT_ID      = 2025-259R
CENTER_NAME    = EARTH
REF_FRAME      = TEME
TIME_SYSTEM    = UTC
MEAN_ELEMENT_THEORY = SGP/SGP4

EPOCH          = 2025-11-22T00:02:54.654144
MEAN_MOTION    = 15.82736481
ECCENTRICITY   = .0002457
INCLINATION    = 42.9973
RA_OF_ASC_NODE = 170.1971
ARG_OF_PERICENTER = 275.4087
MEAN_ANOMALY   = 84.6504

EPHEMERIS_TYPE = 0
CLASSIFICATION_TYPE = U
NORAD_CAT_ID   = 66437
ELEMENT_SET_NO = 999
REV_AT_EPOCH   = 293
BSTAR          = -.18897E-2
MEAN_MOTION_DOT = -.394135E-2
MEAN_MOTION_DDOT = 0

CCSDS_OMM_VERS = 2.0
CREATION_DATE  = 
ORIGINATOR     = 

OBJECT_NAME    = STARLINK-34681
OBJECT_ID      = 2025-259S
CENTER_NAME    = EARTH
REF_FRAME      = TEME
TIME_SYSTEM    = UTC
MEAN_ELEMENT_THEORY = SGP/SGP4

EPOCH          = 2025-11-22T00:02:23.552736
MEAN_MOTION    = 15.82560364
ECCENTRICITY   = .0002504
INCLINATION    = 42.9978
RA_OF_ASC_NODE = 170.1939
ARG_OF_PERICENTER = 265.6533
MEAN_ANOMALY   = 94.4053

EPHEMERIS_TYPE = 0
CLASSIFICATION_TYPE = U
NORAD_CAT_ID   = 66438
ELEMENT_SET_NO = 999
REV_AT_EPOCH   = 282
BSTAR          = -.34258E-2
MEAN_MOTION_DOT = -.685182E-2
MEAN_MOTION_DDOT = 0

CCSDS_OMM_VERS = 2.0
CREATION_DATE  = 
ORIGINATOR     = 

OBJECT_NAME    = STARLINK-35327
OBJECT_ID      = 2025-259T
CENTER_NAME    = EARTH
REF_FRAME      = TEME
TIME_SYSTEM    = UTC
MEAN_ELEMENT_THEORY = SGP/SGP4

EPOCH          = 2025-11-22T00:04:03.213408
MEAN_MOTION    = 15.82757282
ECCENTRICITY   = .0002308
INCLINATION    = 42.9983
RA_OF_ASC_NODE = 170.2049
ARG_OF_PERICENTER = 279.1068
MEAN_ANOMALY   = 80.9543

EPHEMERIS_TYPE = 0
CLASSIFICATION_TYPE = U
NORAD_CAT_ID   = 66439
ELEMENT_SET_NO = 999
REV_AT_EPOCH   = 293
BSTAR          = -.18905E-2
MEAN_MOTION_DOT = -.394654E-2
MEAN_MOTION_DDOT = 0

CCSDS_OMM_VERS = 2.0
CREATION_DATE  = 
ORIGINATOR     = 

OBJECT_NAME    = STARLINK-35405
OBJECT_ID      = 2025-259U
CENTER_NAME    = EARTH
REF_FRAME      = TEME
TIME_SYSTEM    = UTC
MEAN_ELEMENT_THEORY = SGP/SGP4

EPOCH          = 2025-11-22T00:01:50.605824
MEAN_MOTION    = 15.82741869
ECCENTRICITY   = .0002572
INCLINATION    = 42.9979
RA_OF_ASC_NODE = 170.1910
ARG_OF_PERICENTER = 269.5011
MEAN_ANOMALY   = 90.5567

EPHEMERIS_TYPE = 0
CLASSIFICATION_TYPE = U
NORAD_CAT_ID   = 66440
ELEMENT_SET_NO = 999
REV_AT_EPOCH   = 293
BSTAR          = -.18689E-2
MEAN_MOTION_DOT = -.390108E-2
MEAN_MOTION_DDOT = 0

