STARLINK-35533          
1 66429U 25259H   25326.00552367 -.00370135  00000+0 -17636-2 0  9991
2 66429  42.9968 170.2258 0002512 294.8877  65.1733 15.82807890  2934
STARLINK-35470          
1 66430U 25259J   25326.00511041 -.00628820  00000+0 -31115-2 0  9992
2 66430  42.9975 170.2227 0002545 272.2843  87.7738 15.82641954  2931
STARLINK-35439          
1 66431U 25259K   25326.00473854 -.00588707  00000+0 -28971-2 0  9997
2 66431  42.9976 170.2174 0002115 256.5015 103.5622 15.82663667  2937
STARLINK-35446          
1 66432U 25259L   25326.00431377 -.00371071  00000+0 -17710-2 0  9995
2 66432  42.9972 170.2137 0002486 278.3944  81.6646 15.82775562  2937
STARLINK-35457          
1 66433U 25259M   25326.00390580 -.00378368  00000+0 -18090-2 0  9994
2 66433  42.9970 170.2123 0002550 275.2969  84.7612 15.82756513  2938
STARLINK-35389          
1 66434U 25259N   25326.00351727 -.00600825  00000+0 -29695-2 0  9994
2 66434  42.9981 170.2088 0002112 263.7421  96.3210 15.82602521  2932
STARLINK-35502          
1 66435U 25259P   25326.00316569 -.00605176  00000+0 -29926-2 0  9991
2 66435  42.9977 170.2080 0001966 249.9820 110.0841 15.82602990  2939
STARLINK-35501          
1 66436U 25259Q   25326.00243051 -.00601030  00000+0 -29732-2 0  9997
2 66436  42.9976 170.2007 0001964 314.0087  46.0623 15.82585319  2936
STARLINK-35474          
1 66437U 25259R   25326.00202146 -.00394135  00000+0 -18897-2 0  9993
2 66437  42.9973 170.1971 0002457 275.4087  84.6504 15.82736481  2935
STARLINK-34681          
1 66438U 25259S   25326.00166149 -.00685182  00000+0 -34258-2 0  9990
2 66438  42.9978 170.1939 0002504 265.6533  94.4053 15.82560364  2826
STARLINK-35327          
1 66439U 25259T   25326.00281497 -.00394654  00000+0 -18905-2 0  9997
2 66439  42.9983 170.2049 0002308 279.1068  80.9543 15.82757282  2934
STARLINK-35405          
1 66440U 25259U   25326.00128016 -.00390108  00000+0 -18689-2 0  9995
2 66440  42.9979 170.1910 0002572 269.5011  90.5567 15.82741869  2938
